[
  {
    "OBJECT_NAME": "STARLINK-1452",
    "OBJECT_ID": "20035N",
    "EPOCH": "2025-11-11T03:53:41.075808",
    "MEAN_MOTION": 15.27614934,
    "ECCENTRICITY": 0.0011906,
    "INCLINATION": 53.0363,
    "RA_OF_ASC_NODE": 218.4251,
    "ARG_OF_PERICENTER": 59.4825,
    "MEAN_ANOMALY": 300.7347,
    "EPHEMERIS_TYPE": 0,
    "CLASSIFICATION_TYPE": "U",
    "NORAD_CAT_ID": 45669,
    "ELEMENT_SET_NO": 999,
    "REV_AT_EPOCH": 30115,
    "BSTAR": 0.0018401000000000001,
    "MEAN_MOTION_DOT": 0.00050434,
    "MEAN_MOTION_DDOT": 0.0,
    "TLE_LINE1": "1 45669U 20035N   25315.16228097  .00050434  00000+0  18401-2 0  9992",
    "TLE_LINE2": "2 45669  53.0363 218.4251 0011906  59.4825 300.7347 15.27614934301151",
    "COMMENT": "Grouped by shell and plane from TLE"
  },
  {
    "OBJECT_NAME": "STARLINK-1402",
    "OBJECT_ID": "20035AE",
    "EPOCH": "2025-11-11T06:27:19.424448",
    "MEAN_MOTION": 15.27862161,
    "ECCENTRICITY": 0.0003593,
    "INCLINATION": 53.0546,
    "RA_OF_ASC_NODE": 219.4095,
    "ARG_OF_PERICENTER": 118.8437,
    "MEAN_ANOMALY": 241.2922,
    "EPHEMERIS_TYPE": 0,
    "CLASSIFICATION_TYPE": "U",
    "NORAD_CAT_ID": 45685,
    "ELEMENT_SET_NO": 999,
    "REV_AT_EPOCH": 30115,
    "BSTAR": 0.0020105,
    "MEAN_MOTION_DOT": 0.00055496,
    "MEAN_MOTION_DDOT": 0.0,
    "TLE_LINE1": "1 45685U 20035AE  25315.26897482  .00055496  00000+0  20105-2 0  9998",
    "TLE_LINE2": "2 45685  53.0546 219.4095 0003593 118.8437 241.2922 15.27862161301156",
    "COMMENT": "Grouped by shell and plane from TLE"
  },
  {
    "OBJECT_NAME": "STARLINK-1967",
    "OBJECT_ID": "21009W",
    "EPOCH": "2025-11-11T02:55:30.609984",
    "MEAN_MOTION": 15.32346196,
    "ECCENTRICITY": 0.000306,
    "INCLINATION": 53.0539,
    "RA_OF_ASC_NODE": 211.0866,
    "ARG_OF_PERICENTER": 136.7808,
    "MEAN_ANOMALY": 223.3433,
    "EPHEMERIS_TYPE": 0,
    "CLASSIFICATION_TYPE": "U",
    "NORAD_CAT_ID": 47568,
    "ELEMENT_SET_NO": 999,
    "REV_AT_EPOCH": 26268,
    "BSTAR": 0.0022453,
    "MEAN_MOTION_DOT": 0.00071422,
    "MEAN_MOTION_DDOT": 0.0,
    "TLE_LINE1": "1 47568U 21009W   25315.12188206  .00071422  00000+0  22453-2 0  9999",
    "TLE_LINE2": "2 47568  53.0539 211.0866 0003060 136.7808 223.3433 15.32346196262687",
    "COMMENT": "Grouped by shell and plane from TLE"
  },
  {
    "OBJECT_NAME": "STARLINK-1997",
    "OBJECT_ID": "21009AW",
    "EPOCH": "2025-11-10T23:58:48.624096",
    "MEAN_MOTION": 15.39230911,
    "ECCENTRICITY": 0.0002395,
    "INCLINATION": 53.0515,
    "RA_OF_ASC_NODE": 211.4817,
    "ARG_OF_PERICENTER": 151.514,
    "MEAN_ANOMALY": 208.5994,
    "EPHEMERIS_TYPE": 0,
    "CLASSIFICATION_TYPE": "U",
    "NORAD_CAT_ID": 47592,
    "ELEMENT_SET_NO": 999,
    "REV_AT_EPOCH": 26266,
    "BSTAR": 0.0036801,
    "MEAN_MOTION_DOT": 0.00147802,
    "MEAN_MOTION_DDOT": 0.0,
    "TLE_LINE1": "1 47592U 21009AW  25314.99917389  .00147802  00000+0  36801-2 0  9990",
    "TLE_LINE2": "2 47592  53.0515 211.4817 0002395 151.5140 208.5994 15.39230911262661",
    "COMMENT": "Grouped by shell and plane from TLE"
  },
  {
    "OBJECT_NAME": "STARLINK-2032",
    "OBJECT_ID": "21012AF",
    "EPOCH": "2025-11-11T07:19:35.334912",
    "MEAN_MOTION": 15.33573212,
    "ECCENTRICITY": 0.0003267,
    "INCLINATION": 53.0523,
    "RA_OF_ASC_NODE": 219.8764,
    "ARG_OF_PERICENTER": 117.3593,
    "MEAN_ANOMALY": 242.7741,
    "EPHEMERIS_TYPE": 0,
    "CLASSIFICATION_TYPE": "U",
    "NORAD_CAT_ID": 47649,
    "ELEMENT_SET_NO": 999,
    "REV_AT_EPOCH": 26247,
    "BSTAR": 0.0023742,
    "MEAN_MOTION_DOT": 0.00078606,
    "MEAN_MOTION_DDOT": 0.0,
    "TLE_LINE1": "1 47649U 21012AF  25315.30527008  .00078606  00000+0  23742-2 0  9993",
    "TLE_LINE2": "2 47649  53.0523 219.8764 0003267 117.3593 242.7741 15.33573212262474",
    "COMMENT": "Grouped by shell and plane from TLE"
  },
  {
    "OBJECT_NAME": "STARLINK-30110",
    "OBJECT_ID": "23107T",
    "EPOCH": "2025-11-11T08:00:03.000384",
    "MEAN_MOTION": 15.45708147,
    "ECCENTRICITY": 0.0030129,
    "INCLINATION": 42.992,
    "RA_OF_ASC_NODE": 210.2351,
    "ARG_OF_PERICENTER": 204.0502,
    "MEAN_ANOMALY": 351.8018,
    "EPHEMERIS_TYPE": 0,
    "CLASSIFICATION_TYPE": "U",
    "NORAD_CAT_ID": 57474,
    "ELEMENT_SET_NO": 999,
    "REV_AT_EPOCH": 590,
    "BSTAR": 0.0046926,
    "MEAN_MOTION_DOT": 0.00243095,
    "MEAN_MOTION_DDOT": 0.0,
    "TLE_LINE1": "1 57474U 23107T   25315.33336806  .00243095  00000+0  46926-2 0  9999",
    "TLE_LINE2": "2 57474  42.9920 210.2351 0030129 204.0502 351.8018 15.45708147  5909",
    "COMMENT": "Grouped by shell and plane from TLE"
  },
  {
    "OBJECT_NAME": "STARLINK-30712",
    "OBJECT_ID": "23148A",
    "EPOCH": "2025-11-11T03:26:11.901984",
    "MEAN_MOTION": 15.30193682,
    "ECCENTRICITY": 0.0001442,
    "INCLINATION": 53.1608,
    "RA_OF_ASC_NODE": 214.8338,
    "ARG_OF_PERICENTER": 73.2077,
    "MEAN_ANOMALY": 286.9082,
    "EPHEMERIS_TYPE": 0,
    "CLASSIFICATION_TYPE": "U",
    "NORAD_CAT_ID": 57935,
    "ELEMENT_SET_NO": 999,
    "REV_AT_EPOCH": 12027,
    "BSTAR": 5.9302e-05,
    "MEAN_MOTION_DOT": 1.397e-05,
    "MEAN_MOTION_DDOT": 0.0,
    "TLE_LINE1": "1 57935U 23148A   25315.14319331  .00001397  00000+0  59302-4 0  9990",
    "TLE_LINE2": "2 57935  53.1608 214.8338 0001442  73.2077 286.9082 15.30193682120275",
    "COMMENT": "Grouped by shell and plane from TLE"
  },
  {
    "OBJECT_NAME": "STARLINK-30716",
    "OBJECT_ID": "23148B",
    "EPOCH": "2025-11-11T02:34:40.386432",
    "MEAN_MOTION": 15.30193874,
    "ECCENTRICITY": 0.0001425,
    "INCLINATION": 53.1616,
    "RA_OF_ASC_NODE": 215.235,
    "ARG_OF_PERICENTER": 81.4534,
    "MEAN_ANOMALY": 278.6628,
    "EPHEMERIS_TYPE": 0,
    "CLASSIFICATION_TYPE": "U",
    "NORAD_CAT_ID": 57936,
    "ELEMENT_SET_NO": 999,
    "REV_AT_EPOCH": 12026,
    "BSTAR": 4.9849e-05,
    "MEAN_MOTION_DOT": 1.117e-05,
    "MEAN_MOTION_DDOT": 0.0,
    "TLE_LINE1": "1 57936U 23148B   25315.10741188  .00001117  00000+0  49849-4 0  9991",
    "TLE_LINE2": "2 57936  53.1616 215.2350 0001425  81.4534 278.6628 15.30193874120260",
    "COMMENT": "Grouped by shell and plane from TLE"
  },
  {
    "OBJECT_NAME": "STARLINK-30400",
    "OBJECT_ID": "23148C",
    "EPOCH": "2025-11-11T00:22:38.156160",
    "MEAN_MOTION": 15.30202607,
    "ECCENTRICITY": 0.0001228,
    "INCLINATION": 53.16,
    "RA_OF_ASC_NODE": 215.4222,
    "ARG_OF_PERICENTER": 108.8661,
    "MEAN_ANOMALY": 251.2473,
    "EPHEMERIS_TYPE": 0,
    "CLASSIFICATION_TYPE": "U",
    "NORAD_CAT_ID": 57937,
    "ELEMENT_SET_NO": 999,
    "REV_AT_EPOCH": 12025,
    "BSTAR": 6.308e-05,
    "MEAN_MOTION_DOT": 1.51e-05,
    "MEAN_MOTION_DDOT": 0.0,
    "TLE_LINE1": "1 57937U 23148C   25315.01571940  .00001510  00000+0  63080-4 0  9999",
    "TLE_LINE2": "2 57937  53.1600 215.4222 0001228 108.8661 251.2473 15.30202607120259",
    "COMMENT": "Grouped by shell and plane from TLE"
  },
  {
    "OBJECT_NAME": "STARLINK-30714",
    "OBJECT_ID": "23148E",
    "EPOCH": "2025-11-11T02:43:45.458976",
    "MEAN_MOTION": 15.30228826,
    "ECCENTRICITY": 0.0001119,
    "INCLINATION": 53.1604,
    "RA_OF_ASC_NODE": 215.2625,
    "ARG_OF_PERICENTER": 83.2792,
    "MEAN_ANOMALY": 276.8336,
    "EPHEMERIS_TYPE": 0,
    "CLASSIFICATION_TYPE": "U",
    "NORAD_CAT_ID": 57939,
    "ELEMENT_SET_NO": 999,
    "REV_AT_EPOCH": 12026,
    "BSTAR": 0.0,
    "MEAN_MOTION_DOT": -5.132e-05,
    "MEAN_MOTION_DDOT": 0.0,
    "TLE_LINE1": "1 57939U 23148E   25315.11372059 -.00005132  00000+0 -16113-3 0  9992",
    "TLE_LINE2": "2 57939  53.1604 215.2625 0001119  83.2792 276.8336 15.30228826120263",
    "COMMENT": "Grouped by shell and plane from TLE"
  },
  {
    "OBJECT_NAME": "STARLINK-30711",
    "OBJECT_ID": "23148F",
    "EPOCH": "2025-11-11T02:39:14.039424",
    "MEAN_MOTION": 15.30189838,
    "ECCENTRICITY": 0.0001224,
    "INCLINATION": 53.161,
    "RA_OF_ASC_NODE": 215.2607,
    "ARG_OF_PERICENTER": 74.0577,
    "MEAN_ANOMALY": 286.0559,
    "EPHEMERIS_TYPE": 0,
    "CLASSIFICATION_TYPE": "U",
    "NORAD_CAT_ID": 57940,
    "ELEMENT_SET_NO": 999,
    "REV_AT_EPOCH": 12026,
    "BSTAR": 0.00015786,
    "MEAN_MOTION_DOT": 4.317e-05,
    "MEAN_MOTION_DDOT": 0.0,
    "TLE_LINE1": "1 57940U 23148F   25315.11057916  .00004317  00000+0  15786-3 0  9993",
    "TLE_LINE2": "2 57940  53.1610 215.2607 0001224  74.0577 286.0559 15.30189838120267",
    "COMMENT": "Grouped by shell and plane from TLE"
  },
  {
    "OBJECT_NAME": "STARLINK-30455",
    "OBJECT_ID": "23148H",
    "EPOCH": "2025-11-11T01:14:18.127680",
    "MEAN_MOTION": 15.30193504,
    "ECCENTRICITY": 0.0001753,
    "INCLINATION": 53.1603,
    "RA_OF_ASC_NODE": 215.5524,
    "ARG_OF_PERICENTER": 66.2658,
    "MEAN_ANOMALY": 293.8526,
    "EPHEMERIS_TYPE": 0,
    "CLASSIFICATION_TYPE": "U",
    "NORAD_CAT_ID": 57942,
    "ELEMENT_SET_NO": 999,
    "REV_AT_EPOCH": 12025,
    "BSTAR": 0.00021873000000000001,
    "MEAN_MOTION_DOT": 6.123e-05,
    "MEAN_MOTION_DDOT": 0.0,
    "TLE_LINE1": "1 57942U 23148H   25315.05159870  .00006123  00000+0  21873-3 0  9991",
    "TLE_LINE2": "2 57942  53.1603 215.5524 0001753  66.2658 293.8526 15.30193504120256",
    "COMMENT": "Grouped by shell and plane from TLE"
  },
  {
    "OBJECT_NAME": "STARLINK-30456",
    "OBJECT_ID": "23148J",
    "EPOCH": "2025-11-11T02:30:07.850592",
    "MEAN_MOTION": 15.30197987,
    "ECCENTRICITY": 0.0001276,
    "INCLINATION": 53.1604,
    "RA_OF_ASC_NODE": 215.296,
    "ARG_OF_PERICENTER": 72.7041,
    "MEAN_ANOMALY": 287.41,
    "EPHEMERIS_TYPE": 0,
    "CLASSIFICATION_TYPE": "U",
    "NORAD_CAT_ID": 57943,
    "ELEMENT_SET_NO": 999,
    "REV_AT_EPOCH": 12026,
    "BSTAR": 6.2764e-05,
    "MEAN_MOTION_DOT": 1.5e-05,
    "MEAN_MOTION_DDOT": 0.0,
    "TLE_LINE1": "1 57943U 23148J   25315.10425753  .00001500  00000+0  62764-4 0  9993",
    "TLE_LINE2": "2 57943  53.1604 215.2960 0001276  72.7041 287.4100 15.30197987120264",
    "COMMENT": "Grouped by shell and plane from TLE"
  }
]